# Made by vec2tle, compiled Nov  3 2016 19:36:17
# Run at Sat Nov 26 11:46:05 2016
#
# (Modified 2017 Sep 25:  this object maneuvered at some point,  so
# I've truncated the ephems to stop on 2017 Jan 1.  Note that I don't
# really know when the maneuver occurred,  except that by the time
# it was observed again on 2017 Jun 29,  it was off prediction.)
#
#    The following TLEs (Two-Line Elements) were generated by fitting
# a numerically-integrated ephemeris,  based on the orbit given below,
# to the SDP4/SGP4 models.  Each TLE is good for the interval between
# its epoch and the epoch of the subsequent TLE (usually one day).
# The maximum deviation between the numerically integrated ephemerides
# and the TLE-based ephemeris, in kilometers,  is given for each TLE
# as the "worst residual".
#
#    Be warned:  the error given is that between the numerically
# integrated ephems and the TLE model.  There will usually be at
# least some additional difference between the ephems and the actual
# motion of the satellite,  especially if the ephemerides are based
# on a short arc.  If the following orbital elements say something
# like "[based on] 10 observations 2015 Jan. 1-13",  and the TLEs
# are for 2015 May,  the extrapolation may be tenuous at best.  If
# your application requires a specific level of accuracy,  you may
# want to contact me;  I can give you some idea as to the fit of the
# underlying data (and possibly TLEs based on newer data).
#
#    For certain objects,  I use an alternative model in which most of
# the traditional TLE data is replaced by six signed 8-digit hex numbers.
# These six numbers are a state vector,  numerically integrated using
# a simplified force model.  This is necessary for objects at L2 or L1,
# and sometimes for objects in high orbits where the SDP4/SGP4 model
# fails.  I'll be posting source code for this.  But be aware:  it's my
# own extension,  doesn't work with other code,  and is therefore used
# only when necessary.
#
#    Note that for some cases,  the fit to SDP4/SGP4 fails,  and the
# "worst residual" is thousands or even hundreds of thousands of kilometers.
# (This usually happens near perigee for highly eccentric objects.)  In
# such cases,  we pretty much just have to throw up our hands and say
# that we can't use TLEs.  (Which is why I developed the above state
# vector version.)
#
#    Also,  if you use a TLE outside the "correct" time range (between
# its epoch and that of the next epoch),  all bets are off.  It usually
# seems to be a decent fit,  at least for a while,  but I don't
# recommend doing it.
#
# Ephem range: 57388.000000 57754.000000 1.000000
# Created Sat Nov 26 11:45:43 2016
# Ephemeris start:  1 Jan 2016  0:00:00
# Ephemeris end:    1 Jan 2017  0:00:00
# Times are all TDT
# Positions/velocities are in equatorial J2000
# Orbital elements:  2002-048A = NORAD 27540 = Integral
#    Perigee 2016 Sep 30.290470 +/- 0.000119 TT =  6:58:16 (JD 2457661.790470)
# Epoch 2016 Oct  1.0 TT = JDT 2457662.5                        Find_Orb
# M  96.0103671 +/- 0.016             (J2000 equatorial)
# n 135.3154138788 +/- 0.000319       Peri.  260.2100142 +/- 0.009
# a 81103.324997 +/- 0.128            Node   200.4196828 +/- 0.029
# e   0.810461077 +/- 0.000187        Incl.   51.0517057 +/- 0.0032
# P3830.98m/2.660d           H 28.7   G  0.15   U  7.3
# q 15372.236859 +/- 15.2    Q 146834.41313 +/- 15.2
# 16 of 101 observations 2016 May 16-Nov. 5; mean residual 33".897
#
# 1 NoradU COSPAR   Epoch.epoch     dn/dt/2  d2n/dt2/6 BSTAR    T El# C
# 2 NoradU Inclina RAAscNode Eccent  ArgPeri MeanAno  MeanMotion Rev# C

# Worst residual: 2.43 km
# MJD 57388.000000 (2016 Jan  1  0:00)
2002-048A = NORAD 27540 = Integral
1 27540U 02048A   16001.49921083  .00000000  00000-0  00000-0 0    09
2 27540 052.4231 212.6657 8066135 259.0031 150.2026 00.37592666    05

# Worst residual: 10.42 km
# MJD 57389.000000 (2016 Jan  2  0:00)
2002-048A = NORAD 27540 = Integral
1 27540U 02048A   16002.49921083  .00000000  00000-0  00000-0 0    00
2 27540 052.4180 212.6328 8064697 259.0065 285.5643 00.37595306    02

# Worst residual: 12.58 km
# MJD 57390.000000 (2016 Jan  3  0:00)
2002-048A = NORAD 27540 = Integral
1 27540U 02048A   16003.49921083  .00000000  00000-0  00000-0 0    01
2 27540 052.4114 212.5711 8063439 259.0091 060.9849 00.37605054    01

# Worst residual: 3.47 km
# MJD 57391.000000 (2016 Jan  4  0:00)
2002-048A = NORAD 27540 = Integral
1 27540U 02048A   16004.49921083  .00000000  00000-0  00000-0 0    02
2 27540 052.4083 212.5378 8062963 259.0109 196.3748 00.37592791    01

# Worst residual: 13.93 km
# MJD 57392.000000 (2016 Jan  5  0:00)
2002-048A = NORAD 27540 = Integral
1 27540U 02048A   16005.49921083  .00000000  00000-0  00000-0 0    03
2 27540 052.4040 212.5058 8060396 259.0056 331.7459 00.37601788    09

# Worst residual: 6.80 km
# MJD 57393.000000 (2016 Jan  6  0:00)
2002-048A = NORAD 27540 = Integral
1 27540U 02048A   16006.49921083  .00000000  00000-0  00000-0 0    04
2 27540 052.3920 212.4470 8061980 259.0028 107.1655 00.37602019    02

# Worst residual: 4.00 km
# MJD 57394.000000 (2016 Jan  7  0:00)
2002-048A = NORAD 27540 = Integral
1 27540U 02048A   16007.49921083  .00000000  00000-0  00000-0 0    05
2 27540 052.3923 212.4426 8060033 258.9839 242.5850 00.37593524    03

# Worst residual: 13.59 km
# MJD 57395.000000 (2016 Jan  8  0:00)
2002-048A = NORAD 27540 = Integral
1 27540U 02048A   16008.49921083  .00000000  00000-0  00000-0 0    06
2 27540 052.3887 212.4049 8057889 258.9752 017.9910 00.37613840    07

# Worst residual: 3.12 km
# MJD 57396.000000 (2016 Jan  9  0:00)
2002-048A = NORAD 27540 = Integral
1 27540U 02048A   16009.49921083  .00000000  00000-0  00000-0 0    07
2 27540 052.3751 212.3516 8059361 258.9810 153.3894 00.37598786    04

# Worst residual: 9.81 km
# MJD 57397.000000 (2016 Jan 10  0:00)
2002-048A = NORAD 27540 = Integral
1 27540U 02048A   16010.49921083  .00000000  00000-0  00000-0 0    09
2 27540 052.3727 212.3519 8059155 258.9639 288.7947 00.37603981    06

# Worst residual: 11.62 km
# MJD 57398.000000 (2016 Jan 11  0:00)
2002-048A = NORAD 27540 = Integral
1 27540U 02048A   16011.49921083  .00000000  00000-0  00000-0 0    00
2 27540 052.3659 212.2868 8058226 258.9561 064.2392 00.37606386    01

# Worst residual: 3.45 km
# MJD 57399.000000 (2016 Jan 12  0:00)
2002-048A = NORAD 27540 = Integral
1 27540U 02048A   16012.49921083  .00000000  00000-0  00000-0 0    01
2 27540 052.3710 212.2823 8059339 258.9390 199.6333 00.37599071    06

# Worst residual: 17.75 km
# MJD 57400.000000 (2016 Jan 13  0:00)
2002-048A = NORAD 27540 = Integral
1 27540U 02048A   16013.49921083  .00000000  00000-0  00000-0 0    02
2 27540 052.3695 212.2346 8057576 258.9457 335.0187 00.37616325    08

# Worst residual: 5.62 km
# MJD 57401.000000 (2016 Jan 14  0:00)
2002-048A = NORAD 27540 = Integral
1 27540U 02048A   16014.49921083  .00000000  00000-0  00000-0 0    03
2 27540 052.3639 212.1871 8060134 258.9351 110.4245 00.37593875    09

# Worst residual: 4.52 km
# MJD 57402.000000 (2016 Jan 15  0:00)
2002-048A = NORAD 27540 = Integral
1 27540U 02048A   16015.49921083  .00000000  00000-0  00000-0 0    04
2 27540 052.3661 212.1844 8062803 258.9152 245.8320 00.37601437    09

# Worst residual: 15.73 km
# MJD 57403.000000 (2016 Jan 16  0:00)
2002-048A = NORAD 27540 = Integral
1 27540U 02048A   16016.49921083  .00000000  00000-0  00000-0 0    05
2 27540 052.3640 212.1300 8060156 258.9118 021.2530 00.37622399    03

# Worst residual: 3.52 km
# MJD 57404.000000 (2016 Jan 17  0:00)
2002-048A = NORAD 27540 = Integral
1 27540U 02048A   16017.49921083  .00000000  00000-0  00000-0 0    06
2 27540 052.3529 212.0776 8064008 258.9229 156.5784 00.37590355    07

# Worst residual: 11.40 km
# MJD 57405.000000 (2016 Jan 18  0:00)
2002-048A = NORAD 27540 = Integral
1 27540U 02048A   16018.49921083  .00000000  00000-0  00000-0 0    07
2 27540 052.3473 212.0410 8066016 258.9352 291.9534 00.37604273    00

# Worst residual: 18.25 km
# MJD 57406.000000 (2016 Jan 19  0:00)
2002-048A = NORAD 27540 = Integral
1 27540U 02048A   16019.49921083  .00000000  00000-0  00000-0 0    08
2 27540 052.3393 211.9750 8065414 258.9340 067.4026 00.37609109    09

# Worst residual: 3.15 km
# MJD 57407.000000 (2016 Jan 20  0:00)
2002-048A = NORAD 27540 = Integral
1 27540U 02048A   16020.49921083  .00000000  00000-0  00000-0 0    00
2 27540 052.3318 211.9256 8067366 258.9595 202.6837 00.37590099    07

# Worst residual: 12.47 km
# MJD 57408.000000 (2016 Jan 21  0:00)
2002-048A = NORAD 27540 = Integral
1 27540U 02048A   16021.49921083  .00000000  00000-0  00000-0 0    01
2 27540 052.3301 211.8635 8067077 258.9885 338.0455 00.37613405    07

# Worst residual: 8.77 km
# MJD 57409.000000 (2016 Jan 22  0:00)
2002-048A = NORAD 27540 = Integral
1 27540U 02048A   16022.49921083  .00000000  00000-0  00000-0 0    02
2 27540 052.3161 211.8029 8068929 258.9935 113.4511 00.37596293    04

# Worst residual: 6.58 km
# MJD 57410.000000 (2016 Jan 23  0:00)
2002-048A = NORAD 27540 = Integral
1 27540U 02048A   16023.49921083  .00000000  00000-0  00000-0 0    03
2 27540 052.3116 211.7671 8068958 259.0118 248.7578 00.37594066    04

# Worst residual: 10.62 km
# MJD 57411.000000 (2016 Jan 24  0:00)
2002-048A = NORAD 27540 = Integral
1 27540U 02048A   16024.49921083  .00000000  00000-0  00000-0 0    04
2 27540 052.3115 211.7035 8067449 259.0241 024.1594 00.37613692    09

# Worst residual: 3.00 km
# MJD 57412.000000 (2016 Jan 25  0:00)
2002-048A = NORAD 27540 = Integral
1 27540U 02048A   16025.49921083  .00000000  00000-0  00000-0 0    05
2 27540 052.2953 211.6437 8068273 259.0472 159.5217 00.37590342    06

# Worst residual: 14.70 km
# MJD 57413.000000 (2016 Jan 26  0:00)
2002-048A = NORAD 27540 = Integral
1 27540U 02048A   16026.49921083  .00000000  00000-0  00000-0 0    06
2 27540 052.2900 211.6023 8067928 259.0697 294.8316 00.37605599    08
